NORAD_CAT_ID,OBJECT_NAME,OBJECT_TYPE,EPOCH,MEAN_MOTION,ECCENTRICITY,INCLINATION,RA_OF_ASC_NODE,ARG_OF_PERICENTER,MEAN_ANOMALY,BSTAR,MEAN_MOTION_DOT,MEAN_MOTION_DDOT,TLE_LINE0,TLE_LINE1,TLE_LINE2,SEMIMAJOR_AXIS,PERIOD,APOGEE,PERIGEE,DECAYED
51886.0,STARLINK-3565,PAYLOAD,2024-05-30 01:56:26,15.08840022,0.0001354,53.2189,30.8349,102.795,257.3194,2.7272e-05,1.46e-06,0.0,0 STARLINK-3565,1 51886U 22022AL  24151.08086543  .00000146  00000-0  27272-4 0  9998,2 51886  53.2189  30.8349 0001354 102.7950 257.3194 15.08840022125337,6917.88,95.438,540.682,538.809,0.0
51886.0,STARLINK-3565,PAYLOAD,2024-05-30 21:01:04,15.08839905,0.0001313,53.2185,27.2671,104.9409,255.1729,4.1739e-05,3.76e-06,0.0,0 STARLINK-3565,1 51886U 22022AL  24151.87574522  .00000376  00000-0  41739-4 0  9993,2 51886  53.2185  27.2671 0001313 104.9409 255.1729 15.08839905125450,6917.881,95.438,540.654,538.837,0.0
51886.0,STARLINK-3565,PAYLOAD,2024-05-31 20:51:52,15.08830707,0.0001402,53.2185,22.808,90.4854,269.6299,-4.9221e-05,-1.071e-05,0.0,0 STARLINK-3565,1 51886U 22022AL  24152.86935511 -.00001071  00000-0 -49221-4 0  9991,2 51886  53.2185  22.8080 0001402  90.4854 269.6299 15.08830707125607,6917.909,95.438,540.744,538.804,0.0
51886.0,STARLINK-3565,PAYLOAD,2024-05-31 22:27:15,15.08833131,0.000148,53.219,22.5109,93.858,266.2581,-2.7946e-05,-7.33e-06,0.0,0 STARLINK-3565,1 51886U 22022AL  24152.93559312 -.00000733  00000-0 -27946-4 0  9994,2 51886  53.2190  22.5109 0001480  93.8580 266.2581 15.08833131125613,6917.901,95.438,540.79,538.743,0.0
51886.0,STARLINK-3565,PAYLOAD,2024-06-01 07:59:33,15.08844081,0.0001252,53.218,20.7265,87.355,272.7586,6.0469e-05,6.75e-06,0.0,0 STARLINK-3565,1 51886U 22022AL  24153.33302308  .00000675  00000-0  60469-4 0  9990,2 51886  53.2180  20.7265 0001252  87.3550 272.7586 15.08844081125676,6917.868,95.437,540.599,538.867,0.0
51886.0,STARLINK-3565,PAYLOAD,2024-06-01 14:21:06,15.08829294,0.0001521,53.2174,19.5379,85.8291,274.2875,-3.7171e-05,-8.79e-06,0.0,0 STARLINK-3565,1 51886U 22022AL  24153.59799711 -.00000879  00000-0 -37171-4 0  9998,2 51886  53.2174  19.5379 0001521  85.8291 274.2875 15.08829294125717,6917.913,95.438,540.83,538.726,0.0
51886.0,STARLINK-3565,PAYLOAD,2024-06-01 20:42:39,15.08830369,0.0001514,53.2203,18.3505,90.5652,269.5513,-4.521e-05,-1.007e-05,0.0,0 STARLINK-3565,1 51886U 22022AL  24153.86295853 -.00001007  00000-0 -45210-4 0  9993,2 51886  53.2203  18.3505 0001514  90.5652 269.5513 15.08830369125759,6917.91,95.438,540.822,538.727,0.0
51886.0,STARLINK-3565,PAYLOAD,2024-06-02 01:28:48,15.08836688,0.0001303,53.2183,17.4574,92.2817,267.8325,1.119e-05,-1.1e-06,0.0,0 STARLINK-3565,1 51886U 22022AL  24154.06167259 -.00000110  00000-0  11190-4 0  9997,2 51886  53.2183  17.4574 0001303  92.2817 267.8325 15.08836688125785,6917.891,95.438,540.657,538.854,0.0
51886.0,STARLINK-3565,PAYLOAD,2024-06-02 07:50:20,15.08841762,0.0001409,53.2186,16.268,90.9836,269.1318,-6.0989e-06,-3.85e-06,0.0,0 STARLINK-3565,1 51886U 22022AL  24154.32663006 -.00000385  00000-0 -60989-5 0  9993,2 51886  53.2186  16.2680 0001409  90.9836 269.1318 15.08841762125827,6917.875,95.437,540.715,538.765,0.0
51886.0,STARLINK-3565,PAYLOAD,2024-06-03 07:41:07,15.08842316,0.0001262,53.2175,11.8066,108.9267,251.1862,2.0384e-05,3.7e-07,0.0,0 STARLINK-3565,1 51886U 22022AL  24155.32022965  .00000037  00000-0  20384-4 0  9993,2 51886  53.2175  11.8066 0001262 108.9267 251.1862 15.08842316125976,6917.873,95.437,540.611,538.865,0.0
51886.0,STARLINK-3565,PAYLOAD,2024-06-03 14:02:40,15.08834646,0.0002141,53.2158,10.616,82.3433,277.7802,0.00010854,1.439e-05,0.0,0 STARLINK-3565,1 51886U 22022AL  24155.58519648  .00001439  00000-0  10854-3 0  9997,2 51886  53.2158  10.6160 0002141  82.3433 277.7802 15.08834646126017,6917.897,95.438,541.243,538.281,0.0
51886.0,STARLINK-3565,PAYLOAD,2024-06-03 20:24:15,15.0880148,0.0001244,53.2178,9.427,92.254,267.8595,0.00024523,3.613e-05,0.0,0 STARLINK-3565,1 51886U 22022AL  24155.85017530  .00003613  00000-0  24523-3 0  9994,2 51886  53.2178   9.4270 0001244  92.2540 267.8595 15.08801480126052,6917.998,95.44,540.724,539.003,0.0
51886.0,STARLINK-3565,PAYLOAD,2024-06-04 07:31:56,15.08826622,0.0001487,53.2182,7.346,79.8646,280.2514,-0.0001142,-2.104e-05,0.0,0 STARLINK-3565,1 51886U 22022AL  24156.31385295 -.00002104  00000-0 -11420-3 0  9990,2 51886  53.2182   7.3460 0001487  79.8646 280.2514 15.08826622126125,6917.921,95.438,540.815,538.758,0.0
51886.0,STARLINK-3565,PAYLOAD,2024-06-04 20:14:58,15.08922526,7.75e-05,53.2181,4.9654,44.847,315.2585,-0.0011509,-0.00018598,0.0,0 STARLINK-3565,1 51886U 22022AL  24156.84373018 -.00018598  00000-0 -11509-2 0  9999,2 51886  53.2181   4.9654 0000775  44.8470 315.2585 15.08922526126204,6917.628,95.432,540.029,538.957,0.0
51886.0,STARLINK-3565,PAYLOAD,2024-06-05 07:22:41,15.08852374,0.0001234,53.2181,2.8857,85.1377,274.9756,0.00023957,3.528e-05,0.0,0 STARLINK-3565,1 51886U 22022AL  24157.30742427  .00003528  00000-0  23957-3 0  9991,2 51886  53.2181   2.8857 0001234  85.1377 274.9756 15.08852374126272,6917.843,95.437,540.561,538.854,0.0
51886.0,STARLINK-3565,PAYLOAD,2024-06-05 13:44:14,15.08839822,0.0001891,53.2165,1.694,96.6643,263.4564,0.00019808,2.866e-05,0.0,0 STARLINK-3565,1 51886U 22022AL  24157.57239486  .00002866  00000-0  19808-3 0  9990,2 51886  53.2165   1.6940 0001891  96.6643 263.4564 15.08839822126314,6917.881,95.438,541.054,538.438,0.0
51886.0,STARLINK-3565,PAYLOAD,2024-06-05 20:05:47,15.08840401,0.0001898,53.2174,0.5051,96.5796,263.5413,0.00018638,2.679e-05,0.0,0 STARLINK-3565,1 51886U 22022AL  24157.83735513  .00002679  00000-0  18638-3 0  9993,2 51886  53.2174   0.5051 0001898  96.5796 263.5413 15.08840401126353,6917.879,95.438,541.057,538.431,0.0
51886.0,STARLINK-3565,PAYLOAD,2024-06-06 23:07:20,15.0884767,0.0001712,53.2153,355.4519,88.7751,271.3437,1.5764e-05,-3.7e-07,0.0,0 STARLINK-3565,1 51886U 22022AL  24158.96343606 -.00000037  00000-0  15764-4 0  9991,2 51886  53.2153 355.4519 0001712  88.7751 271.3437 15.08847670126527,6917.857,95.437,540.906,538.538,0.0
51886.0,STARLINK-3565,PAYLOAD,2024-06-07 19:47:22,15.08836864,0.000122,53.2164,351.5864,95.995,264.1181,-1.7766e-05,-5.71e-06,0.0,0 STARLINK-3565,1 51886U 22022AL  24159.82456060 -.00000571  00000-0 -17766-4 0  9994,2 51886  53.2164 351.5864 0001220  95.9950 264.1181 15.08836864126657,6917.89,95.438,540.599,538.911,0.0
51886.0,STARLINK-3565,PAYLOAD,2024-06-07 21:22:45,15.08837771,4.58e-05,53.2194,351.2904,75.0312,285.0731,-4.601e-06,-3.61e-06,0.0,0 STARLINK-3565,1 51886U 22022AL  24159.89080003 -.00000361  00000-0 -46010-5 0  9993,2 51886  53.2194 351.2904 0000458  75.0312 285.0731 15.08837771126667,6917.887,95.438,540.069,539.435,0.0
51886.0,STARLINK-3565,PAYLOAD,2024-06-08 05:19:39,15.08851245,7.76e-05,53.2192,349.8032,302.6628,57.4289,9.6437e-05,1.248e-05,0.0,0 STARLINK-3565,1 51886U 22022AL  24160.22198550  .00001248  00000-0  96437-4 0  9999,2 51886  53.2192 349.8032 0000776 302.6628  57.4289 15.08851245126719,6917.846,95.437,540.248,539.174,0.0
51886.0,STARLINK-3565,PAYLOAD,2024-06-08 13:16:37,15.08826627,0.0001087,53.2181,348.3142,72.7833,287.3278,-0.00010395,-1.941e-05,0.0,0 STARLINK-3565,1 51886U 22022AL  24160.55320957 -.00001941  00000-0 -10395-3 0  9993,2 51886  53.2181 348.3142 0001087  72.7833 287.3278 15.08826627126765,6917.921,95.438,540.538,539.034,0.0
51886.0,STARLINK-3565,PAYLOAD,2024-06-08 19:38:09,15.08836886,7.97e-05,53.218,347.1245,54.434,305.6726,5.7374e-07,-2.79e-06,0.0,0 STARLINK-3565,1 51886U 22022AL  24160.81816071 -.00000279  00000-0  57374-6 0  9992,2 51886  53.2180 347.1245 0000797  54.4340 305.6726 15.08836886126807,6917.89,95.438,540.306,539.204,0.0
51886.0,STARLINK-3565,PAYLOAD,2024-06-09 05:10:27,15.08842438,0.0001723,53.2209,345.3403,79.1211,280.9975,2.3749e-05,9e-07,0.0,0 STARLINK-3565,1 51886U 22022AL  24161.21559742  .00000090  00000-0  23749-4 0  9993,2 51886  53.2209 345.3403 0001723  79.1211 280.9975 15.08842438126863,6917.873,95.437,540.93,538.546,0.0
51886.0,STARLINK-3565,PAYLOAD,2024-06-09 13:07:24,15.08819875,0.0001275,53.2161,343.8541,91.4008,268.713,-6.1055e-05,-1.259e-05,0.0,0 STARLINK-3565,1 51886U 22022AL  24161.54681457 -.00001259  00000-0 -61055-4 0  9990,2 51886  53.2161 343.8541 0001275  91.4008 268.7130 15.08819875126911,6917.942,95.439,540.689,538.925,0.0
51886.0,STARLINK-3565,PAYLOAD,2024-06-09 21:04:20,15.08827992,0.0001181,53.222,342.3698,87.6253,272.4874,6.3013e-06,-1.88e-06,0.0,0 STARLINK-3565,1 51886U 22022AL  24161.87801032 -.00000188  00000-0  63013-5 0  9995,2 51886  53.2220 342.3698 0001181  87.6253 272.4874 15.08827992126960,6917.917,95.438,540.599,538.965,0.0
51886.0,STARLINK-3565,PAYLOAD,2024-06-10 05:01:14,15.08842496,7.75e-05,53.2157,340.8789,83.6938,276.4142,3.9797e-05,3.46e-06,0.0,0 STARLINK-3565,1 51886U 22022AL  24162.20919873  .00000346  00000-0  39797-4 0  9992,2 51886  53.2157 340.8789 0000775  83.6938 276.4142 15.08842496127012,6917.873,95.437,540.274,539.202,0.0
51886.0,STARLINK-3565,PAYLOAD,2024-06-10 19:19:43,15.08841905,6.41e-05,53.2181,338.2032,63.3924,296.7134,0.00010269,1.347e-05,0.0,0 STARLINK-3565,1 51886U 22022AL  24162.80536081  .00001347  00000-0  10269-3 0  9998,2 51886  53.2181 338.2032 0000641  63.3924 296.7134 15.08841905127103,6917.875,95.437,540.183,539.296,0.0
51886.0,STARLINK-3565,PAYLOAD,2024-06-11 11:13:35,15.08827743,0.0001341,53.219,335.2322,84.442,275.6725,0.00010736,1.421e-05,0.0,0 STARLINK-3565,1 51886U 22022AL  24163.46777038  .00001421  00000-0  10736-3 0  9992,2 51886  53.2190 335.2322 0001341  84.4420 275.6725 15.08827743127202,6917.918,95.438,540.711,538.855,0.0
51886.0,STARLINK-3565,PAYLOAD,2024-06-12 04:42:48,15.08851691,0.0001346,53.2176,331.9602,80.7407,279.3738,0.00012632,1.724e-05,0.0,0 STARLINK-3565,1 51886U 22022AL  24164.19639393  .00001724  00000-0  12632-3 0  9997,2 51886  53.2176 331.9602 0001346  80.7407 279.3738 15.08851691127315,6917.845,95.437,540.641,538.779,0.0
